NAVSTAR 84 (USA 545)    
1 64202U 25116A   25178.33933604 -.00000077  00000+0  00000+0 0  9996
2 64202  54.9780  45.4413 0001432 300.7010 235.6146  2.00570136   754
STARLINK-33966          
1 64203U 25117A   25179.83335648 -.01878540  00000+0 -47491-1 0  9995
2 64203  53.1600 142.7512 0001292  69.1333 260.0900 15.42525007  4577
STARLINK-34331          
1 64204U 25117B   25179.89834960  .00055004  00000+0  96298-3 0  9993
2 64204  53.1617 142.3870 0002708 256.9070 103.1637 15.50095627  4580
STARLINK-34251          
1 64205U 25117C   25179.18875714  .00054532  00000+0  97987-3 0  9999
2 64205  53.1615 145.7757 0001059  75.2374 284.8752 15.49362586  5504
STARLINK-34311          
1 64206U 25117D   25179.89800464  .00053435  00000+0  96100-3 0  9995
2 64206  53.1617 142.3812 0000670 101.7788 258.3296 15.49346278  4580
STARLINK-34324          
1 64207U 25117E   25179.83335648 -.01816455  00000+0 -43309-1 0  9990
2 64207  53.1610 142.7091 0001342  67.3531 281.6341 15.44137268  4578
STARLINK-34327          
1 64208U 25117F   25179.58335648 -.00004465  00000+0 -10177-3 0  9991
2 64208  53.1607 143.9706 0001294  92.2824 268.6940 15.39604441  5509
STARLINK-33944          
1 64209U 25117G   25179.58335648 -.00018180  00000+0 -44574-3 0  9999
2 64209  53.1604 144.0220 0001346  90.5189 244.6552 15.39609758  5669
STARLINK-34310          
1 64210U 25117H   25179.83335648 -.01386742  00000+0 -31007-1 0  9997
2 64210  53.1609 142.6827 0001114 102.0346 260.2456 15.46179856  4586
STARLINK-34258          
1 64211U 25117J   25179.89628774  .00054456  00000+0  97892-3 0  9996
2 64211  53.1613 142.3696 0000986  91.2354 268.8768 15.49350731  4594
STARLINK-34284          
1 64212U 25117K   25179.89594354  .00044466  00000+0  80187-3 0  9992
2 64212  53.1618 142.3655 0001020 107.9868 252.1252 15.49349548  4598
STARLINK-34332          
1 64213U 25117L   25179.89560272  .00056993  00000+0  10247-2 0  9992
2 64213  53.1617 142.3657 0001250  94.6450 265.4702 15.49326548  4585
STARLINK-34283          
1 64214U 25117M   25179.18566778  .00050526  00000+0  91020-3 0  9997
2 64214  53.1613 145.7538 0001050  89.0749 271.0380 15.49322791  5508
STARLINK-34349          
1 64215U 25117N   25179.18532431  .00033203  00000+0  60206-3 0  9992
2 64215  53.1615 145.7515 0001241  96.5920 263.5231 15.49329955  5502
STARLINK-34296          
1 64216U 25117P   25179.18498266  .00050001  00000+0  90086-3 0  9994
2 64216  53.1617 145.7488 0001239  99.3602 260.7548 15.49323557  5534
STARLINK-34320          
1 64217U 25117Q   25179.83335648  .00072910  00000+0  18181-2 0  9999
2 64217  53.1603 142.7428 0001183  79.6038 251.7107 15.39573634  4579
STARLINK-34300          
1 64218U 25117R   25179.58335648 -.00017481  00000+0 -42842-3 0  9998
2 64218  53.1608 143.9721 0001121  79.8995 279.1625 15.39593106  5565
STARLINK-34323          
1 64219U 25117S   25179.83335648 -.01823865  00000+0 -43073-1 0  9994
2 64219  53.1610 142.6611 0001427  71.8458 299.7110 15.44427833  4574
STARLINK-34328          
1 64220U 25117T   25179.89319650  .00040090  00000+0  72430-3 0  9996
2 64220  53.1616 142.3478 0001623  99.1152 261.0041 15.49343451  4586
STARLINK-34326          
1 64221U 25117U   25179.83335648 -.02210744  00000+0 -57657-1 0  9997
2 64221  53.1612 142.6933 0000523  97.6340 257.9037 15.41609162  4576
STARLINK-34318          
1 64222U 25117V   25179.18292056  .00037135  00000+0  67222-3 0  9999
2 64222  53.1609 145.7349 0001179  98.1328 261.9815 15.49323962  5500
STARLINK-34337          
1 64223U 25117W   25179.63413394  .00070230  00000+0  12581-2 0  9990
2 64223  53.1610 143.5725 0001181  86.5463 273.5681 15.49339944  4541
STARLINK-34304          
1 64224U 25117X   25179.18223508  .00052142  00000+0  93914-3 0  9999
2 64224  53.1615 145.7303 0001195  85.4838 274.6307 15.49314311  5530
STARLINK-34289          
1 64225U 25117Y   25179.18189000  .00037632  00000+0  68066-3 0  9995
2 64225  53.1620 145.7286 0001018  87.6128 272.4998 15.49340702  5532
STARLINK-34347          
1 64226U 25117Z   25179.18154598  .00061927  00000+0  11125-2 0  9997
2 64226  53.1618 145.7252 0001190  93.2133 266.9013 15.49313756  5505
STARLINK-34330          
1 64227U 25117AA  25179.18085561  .00056854  00000+0  10232-2 0  9992
2 64227  53.1612 145.7208 0001038  90.7748 269.3380 15.49299574  5501
STARLINK-34167          
1 64228U 25117AB  25179.18120446  .00058152  00000+0  10454-2 0  9994
2 64228  53.1621 145.7235 0000895  83.8952 276.2159 15.49321432  5535
STARLINK-34241          
1 64229U 25117AC  25179.61202379  .00022385  00000+0  56774-3 0  9994
2 64229  53.1606 146.3380 0001345  88.4211 271.6948 15.39631988  5564
ELECTRON KICK STAGE R/B 
1 64230U 25118A   25179.55627013  .00012395  00000+0  41373-3 0  9995
2 64230  58.9922 116.6638 0011667 358.1944   1.9084 15.31415198  3911
GLOBAL-32               
1 64231U 25118B   25179.28659298  .00007959  00000+0  26650-3 0  9997
2 64231  58.9961 117.6716 0013265 350.4559   9.6260 15.31775015  3868
STARLINK-11686 [DTC]    
1 64233U 25119A   25179.40730324  .00337720  00000+0  18536-2 0  9999
2 64233  42.9984 305.3545 0002447 247.1875 112.8737 15.78024300  5219
STARLINK-11682 [DTC]    
1 64234U 25119B   25179.71892110  .00296276  00000+0  16413-2 0  9998
2 64234  42.9977 303.3885 0001683 275.4401  84.6277 15.77931765  5257
STARLINK-11675 [DTC]    
1 64235U 25119C   25179.71404284  .00227933  00000+0  12749-2 0  9992
2 64235  42.9978 303.3494 0001429 292.2654  67.8064 15.77909165  5256
STARLINK-11691 [DTC]    
1 64236U 25119D   25179.70915641  .00287841  00000+0  15946-2 0  9992
2 64236  42.9979 303.3121 0003444 266.1499  93.8977 15.77952078  5254
STARLINK-11670 [DTC]    
1 64237U 25119E   25179.70427824  .00140133  00000+0  79271-3 0  9998
2 64237  42.9986 303.2716 0001939 273.2844  86.7805 15.77918564  5255
STARLINK-11708 [DTC]    
1 64238U 25119F   25179.76269797  .00227920  00000+0  12759-2 0  9995
2 64238  42.9989 302.8444 0002092 271.3050  88.7580 15.77889937  5265
STARLINK-11683 [DTC]    
1 64239U 25119G   25179.75782002  .00137383  00000+0  77843-3 0  9993
2 64239  42.9993 302.8071 0001420 278.2256  81.8453 15.77891496  5261
STARLINK-11684 [DTC]    
1 64240U 25119H   25179.62634207  .00190577  00000+0  10718-2 0  9995
2 64240  42.9993 303.5374 0001613 272.1964  87.8721 15.77895278  5244
STARLINK-11689 [DTC]    
1 64241U 25119J   25179.74318142  .00143827  00000+0  81293-3 0  9999
2 64241  42.9993 302.6899 0002375 281.5727  78.4877 15.77924511  5267
STARLINK-11690 [DTC]    
1 64242U 25119K   25179.74805908  .00141839  00000+0  80285-3 0  9992
2 64242  42.9989 302.7284 0002014 261.6170  98.4472 15.77899375  5265
STARLINK-11694 [DTC]    
1 64243U 25119L   25179.83335648 -.00047516  00000+0 -27178-3 0  9993
2 64243  42.9991 302.0734 0001636 279.8553 260.8698 15.77849021  5287
STARLINK-11710 [DTC]    
1 64244U 25119M   25179.58335648 -.00057990  00000+0 -33228-3 0  9996
2 64244  42.9995 303.5281 0001679 278.6160 307.9706 15.77878857  5263
STARLINK-11704 [DTC]    
1 64245U 25119N   25179.83335648 -.00011430  00000+0 -62890-4 0  9992
2 64245  43.0003 301.9356 0002280 276.9916 319.1699 15.77856034  5281
STARLINK-34203          
1 64246U 25119P   25179.83335648  .00077038  00000+0  18352-2 0  9999
2 64246  43.0001 304.9635 0001702 272.6846 177.1231 15.40661950  5258
STARLINK-33865          
1 64247U 25119Q   25179.67024121  .00049180  00000+0  83821-3 0  9994
2 64247  43.0004 305.6684 0001901 275.5586  84.5057 15.50600236  5234
STARLINK-34234          
1 64248U 25119R   25179.73362974  .00063449  00000+0  10781-2 0  9991
2 64248  43.0001 305.2823 0001599 272.3102  87.7575 15.50592034  5242
STARLINK-34256          
1 64249U 25119S   25179.73487262 -.03575484  00000+0 -80665-1 0  9999
2 64249  43.0008 305.2940 0028856 160.3915 199.8059 15.46137634  5241
STARLINK-34229          
1 64250U 25119T   25179.83335648 -.01925692  00000+0 -46549-1 0  9993
2 64250  42.9997 304.7628 0001140 271.8809 261.0082 15.43707062  5256
STARLINK-34224          
1 64251U 25119U   25179.83335648  .00080234  00000+0  19103-2 0  9992
2 64251  43.0000 304.8726 0001526 275.4292 211.7038 15.40660864  5256
STARLINK-34215          
1 64252U 25119V   25179.83335648 -.01619836  00000+0 -34904-1 0  9997
2 64252  42.9994 304.7089 0001225 287.8297 267.6039 15.46994638  5263
STARLINK-33893          
1 64253U 25119W   25179.41052850  .00041012  00000+0  70101-3 0  9996
2 64253  43.0005 307.1580 0001532 267.1445  92.9240 15.50587895  5237
STARLINK-34183          
1 64254U 25119X   25179.79666959  .00069137  00000+0  11720-2 0  9998
2 64254  42.9990 304.8941 0002035 262.1157  97.9473 15.50624140  5258
STARLINK-34211          
1 64255U 25119Y   25179.79632819  .00045563  00000+0  77720-3 0  9997
2 64255  43.0008 304.8932 0002199 285.1283  74.9334 15.50605509  5256
STARLINK-34329          
1 64256U 25120A   25179.83335648 -.00011046  00000+0 -26651-3 0  9993
2 64256  53.1587 220.8294 0000831  79.9808 121.5196 15.39628087  4934
STARLINK-34352          
1 64257U 25120B   25179.83335648 -.01435084  00000+0 -28551-1 0  9996
2 64257  53.1591 220.5724 0001193 104.4339 225.4914 15.49613784  4986
STARLINK-34308          
1 64258U 25120C   25179.83335648 -.02655211  00000+0 -69756-1 0  9996
2 64258  53.1605 220.6288 0001662 120.9727 181.6585 15.42072785  4984
STARLINK-34306          
1 64259U 25120D   25179.83335648  .00007933  00000+0  15060-3 0  9996
2 64259  53.1586 220.5691 0001172  92.4438 239.4284 15.49299511  4925
STARLINK-34281          
1 64260U 25120E   25179.51519096  .00032543  00000+0  59045-3 0  9990
2 64260  53.1583 222.0819 0001281  79.5076 280.6077 15.49323040  4886
STARLINK-34297          
1 64261U 25120F   25179.83335648 -.00010774  00000+0 -25973-3 0  9992
2 64261  53.1602 220.7250 0000802  98.7509 154.2572 15.39624374  4839
